OBJECT_NAME,OBJECT_ID,EPOCH,MEAN_MOTION,ECCENTRICITY,INCLINATION,RA_OF_ASC_NODE,ARG_OF_PERICENTER,MEAN_ANOMALY,EPHEMERIS_TYPE,CLASSIFICATION_TYPE,NORAD_CAT_ID,ELEMENT_SET_NO,REV_AT_EPOCH,BSTAR,MEAN_MOTION_DOT,MEAN_MOTION_DDOT
BEIDOU-2 G8 (C01),2019-027A,2026-06-16T18:50:07.411200,1.00270894,.0010215,1.6567,74.4882,281.8057,335.8291,0,U,44231,999,2607,0,-.251E-5,0
COSMOS 2534 (758),2019-030A,2026-06-16T03:36:36.198144,2.13102184,.00133893,64.3685,192.6516,275.0852,148.6554,0,U,44299,999,5490,0,.77E-6,0
BEIDOU-3 IGSO-2 (C39),2019-035A,2026-06-14T14:58:00.763680,1.00267330,.0039904,55.2456,158.8849,216.4592,231.8306,0,U,44337,999,2564,0,-.71E-6,0
GPS BIII-2  (PRN 18),2019-056A,2026-06-16T15:39:48.312000,2.00569450,.006212,55.6372,331.1634,197.6135,163.8275,0,U,44506,999,5006,0,-.85E-6,0
BEIDOU-3 M24 (C46),2019-061A,2026-06-16T04:02:42.402048,1.86229155,.00082945,54.3962,182.7624,358.7070,1.3305,0,U,44542,999,4577,0,.72E-6,0
BEIDOU-3 M23 (C45),2019-061B,2026-06-16T13:20:41.756640,1.86227264,.0005671,54.3947,182.7174,338.0060,193.4228,0,U,44543,999,4578,0,.67E-6,0
EUTELSAT 5 WEST B (EGNOS/PRN 121),2019-067A,2026-06-15T16:27:31.817088,1.00272136,.00028732,0.0632,3.7418,78.7733,63.3583,0,U,44624,999,2442,0,-.4E-6,0
BEIDOU-3 M22 (C44),2019-078A,2026-06-16T00:12:00.682272,1.86227220,.0006404,53.9371,299.8696,50.5070,309.5376,0,U,44793,999,4462,0,-.68E-6,0
BEIDOU-3 M21 (C43),2019-078B,2026-06-16T03:33:30.281760,1.86227629,.00042219,53.9102,299.8261,48.5943,311.4305,0,U,44794,999,4463,0,-.69E-6,0
COSMOS 2544 (759),2019-088A,2026-06-16T13:26:34.149408,2.13102636,.0013113,65.5652,73.7520,258.5718,101.3140,0,U,44850,999,5070,0,-.2E-6,0
BEIDOU-3 M19 (C41),2019-090A,2026-06-14T12:33:33.779232,1.86231333,.00179222,56.5562,62.8792,297.9457,249.9520,0,U,44864,999,4418,0,-.53E-6,0
BEIDOU-3 M20 (C42),2019-090B,2026-06-15T10:45:46.195776,1.86231059,.00157003,56.5591,62.8831,311.8905,225.8558,0,U,44865,999,4418,0,-.51E-6,0
BEIDOU-3 G2 (C60),2020-017A,2026-06-16T18:31:28.990848,1.00271965,.000202,2.8631,47.3330,32.2640,183.3890,0,U,45344,999,2325,0,-.145E-5,0
COSMOS 2545 (760),2020-018A,2026-06-16T06:51:36.735840,2.13102431,.0008397,64.3556,312.4510,230.0424,129.8687,0,U,45358,999,4864,0,-.55E-6,0
BEIDOU-3 G3 (C61),2020-040A,2026-06-16T18:40:23.343744,1.00266625,.0002391,2.4458,67.4395,335.4082,252.7971,0,U,45807,999,2206,0,-.357E-5,0
GPS BIII-3  (PRN 23),2020-041A,2026-06-11T13:28:43.319136,2.00558626,.0063604,56.6657,29.1622,204.6361,19.3768,0,U,45854,999,4392,0,-.63E-6,0
GALAXY 30 (WAAS/PRN 135),2020-056C,2026-06-16T17:33:14.421024,1.00271138,.0002091,0.0145,29.2782,56.6246,317.3968,0,U,46114,999,2128,0,.34E-6,0
COSMOS 2547 (705K),2020-075A,2026-06-12T17:18:40.313088,2.13100258,.00092459,64.5993,192.6246,239.6069,120.3788,0,U,46805,999,4381,0,.119E-5,0
GPS BIII-4  (PRN 14),2020-078A,2026-06-16T09:18:55.054944,2.00564793,.00734706,53.9798,210.8110,207.1720,238.0340,0,U,46826,999,4149,0,.55E-6,0
GPS BIII-5  (PRN 11),2021-054A,2026-06-14T11:47:19.265280,2.00568903,.0025337,55.1759,332.5679,228.5758,113.1489,0,U,48859,999,3669,0,-.79E-6,0
QZS-1R (QZSS/PRN 196),2021-096A,2026-06-16T15:19:17.320224,1.00255427,.0754867,37.4612,79.5914,271.7927,277.3771,0,U,49336,999,1700,0,-.283E-5,0
GSAT0223 (GALILEO 27),2021-116A,2026-06-16T09:11:31.624224,1.70475731,.00015407,57.1609,341.6961,187.8926,158.3860,0,U,49809,999,2816,0,-.86E-6,0
GSAT0224 (GALILEO 28),2021-116B,2026-06-15T15:04:19.674336,1.70475771,.0001119,57.1620,341.7155,160.0278,195.5159,0,U,49810,999,2817,0,-.83E-6,0
COSMOS 2557 (706K),2022-075A,2026-06-12T21:15:15.092640,2.13102288,.00102223,64.3011,314.6375,275.3123,84.5589,0,U,52984,999,3062,0,-.51E-6,0
COSMOS 2559 (707K),2022-130A,2026-06-16T11:01:23.578752,2.13101548,.00125785,64.2716,314.5942,178.0792,181.9110,0,U,54031,999,2867,0,-.56E-6,0
COSMOS 2564 (761),2022-161A,2026-06-16T07:15:43.862400,2.13101988,.00121838,64.7415,192.7412,224.7378,135.2251,0,U,54377,999,2761,0,.76E-6,0
GPS BIII-6  (PRN 28),2023-009A,2026-06-16T14:55:07.085856,2.00571344,.000625,55.1227,148.5411,321.9869,156.3274,0,U,55268,999,2523,0,.44E-6,0
BEIDOU-3 G4 (C62),2023-066A,2026-06-16T18:48:45.041760,1.00273785,.0004318,0.4872,331.3969,181.2634,174.6011,0,U,56564,999,1138,0,-.283E-5,0
NVS-01 (IRNSS-1J),2023-076A,2026-06-16T18:45:45.328032,1.00264876,.0003178,2.1666,244.3643,36.2126,35.3655,0,U,56759,999,1111,0,-.338E-5,0
COSMOS 2569 (703K),2023-114A,2026-06-15T09:02:00.891744,2.13103652,.00107345,65.3011,72.6815,296.8932,63.0268,0,U,57517,999,2222,0,-.24E-6,0
BEIDOU-3 M28 (C50),2023-207A,2026-06-13T00:05:10.893120,1.86229633,.0003374,55.7492,62.4443,346.0621,13.9544,0,U,58654,999,1676,0,-.57E-6,0
